IONOSFERA-M 2           
1 61736U 24199B   26185.17657740  .00000070  00000+0  50972-4 0  9990
2 61736  98.7149  58.0782 0000369  58.3184 301.8030 14.22760874133249
PRSC-EO1                
1 62725U 25012A   26185.33420515  .00009314  00000+0  46532-3 0  9996
2 62725  97.4217 257.4588 0005924 183.1478 176.9720 15.17669812 80797
BIOMASS                 
1 63772U 25090A   26184.94542089  .00001237  00000+0  22742-3 0  9995
2 63772  98.0747  12.0140 0001428  85.8920 274.2447 14.67363795 63142
GOSAT-GW (IBUKI GW)     
1 64694U 25141A   26185.30369462  .00000883  00000+0  16413-3 0  9993
2 64694  98.0567 122.3426 0001445  85.1765 274.9605 14.67557953 54354
IONOSFERA-M 3           
1 64876U 25155A   26185.27988016  .00000071  00000+0  52157-4 0  9993
2 64876  98.6034 146.7553 0001893 128.7285 231.4062 14.21489431 48836
IONOSFERA-M 4           
1 64877U 25155B   26185.31469279  .00000067  00000+0  50089-4 0  9991
2 64877  98.6039 146.7064 0001598 110.0508 250.0842 14.21491796 48833
MICROCARB               
1 64899U 25156A   26184.66179525  .00000642  00000+0  10798-3 0  9996
2 64899  98.0107 261.5286 0016881 207.2389 152.7935 14.72874273 50392
CO3D 3                  
1 64900U 25156B   26185.16991721  .00005662  00000+0  26445-3 0  9998
2 64900  97.4328 263.6189 0001853 107.9167 252.2271 15.20207644 52118
CO3D 4                  
1 64901U 25156C   26184.64348196  .00002654  00000+0  12566-3 0  9990
2 64901  97.4331 263.1003 0000893 172.3051 187.8198 15.20201083 52037
CO3D 2                  
1 64902U 25156D   26185.20254535  .00005090  00000+0  23809-3 0  9996
2 64902  97.4332 263.5497 0001395  92.8952 267.2443 15.20198540 52112
CO3D 1                  
1 64903U 25156E   26185.20270018  .00005014  00000+0  23462-3 0  9992
2 64903  97.4323 263.5507 0001260 103.1286 257.0090 15.20198264 52110
PRSC-S1                 
1 65055U 25164A   26185.30161091  .00003707  00000+0  25774-3 0  9996
2 65055  41.1288 191.4139 0005127 117.9134 242.2199 15.06576002 51014
SENTINEL-6B             
1 66514U 25264A   26185.18446177 -.00000036  00000+0  10785-3 0  9994
2 66514  66.0413  99.8762 0007920 268.9420  91.0688 12.80930015 29343
CAS500-3                
1 66655U 25274F   26184.75391256  .00001574  00000+0  17571-3 0  9997
2 66655  97.7441 112.4281 0006841  67.8707 292.3236 14.88362751 32619
CSG-3                   
1 67304U 26001A   26185.07664674  .00003087  00000+0  39422-3 0  9991
2 67304  97.8889   8.4338 0001392  84.6890 275.4481 14.82150390 26964
PRSC-E03                
1 68835U 26092A   26185.15426924  .00003953  00000+0  26773-3 0  9991
2 68835  38.0020 349.6238 0003602 177.3627 182.7154 15.06764697 10510
CAS500-2                
1 69013U 26100AK  26184.27369612  .00007309  00000+0  33441-3 0  9991
2 69013  97.3883  81.8293 0008878 340.4255  19.6638 15.20782809  9255
