OBJECT_NAME,OBJECT_ID,EPOCH,MEAN_MOTION,ECCENTRICITY,INCLINATION,RA_OF_ASC_NODE,ARG_OF_PERICENTER,MEAN_ANOMALY,EPHEMERIS_TYPE,CLASSIFICATION_TYPE,NORAD_CAT_ID,ELEMENT_SET_NO,REV_AT_EPOCH,BSTAR,MEAN_MOTION_DOT,MEAN_MOTION_DDOT
IONOSFERA-M 2,2024-199B,2026-07-04T04:14:16.287360,14.22760874,.00003695,98.7149,58.0782,58.3184,301.8030,0,U,61736,999,13324,.50972218E-4,.7E-6,0
PRSC-EO1,2025-012A,2026-07-04T08:01:15.324960,15.17669812,.00059247,97.4217,257.4588,183.1478,176.9720,0,U,62725,999,8079,.46532445E-3,.9314E-4,0
BIOMASS,2025-090A,2026-07-03T22:41:24.364896,14.67363795,.00014283,98.0747,12.0140,85.8920,274.2447,0,U,63772,999,6314,.22742015E-3,.1237E-4,0
GOSAT-GW (IBUKI GW),2025-141A,2026-07-04T07:17:19.215168,14.67557953,.00014454,98.0567,122.3426,85.1765,274.9605,0,U,64694,999,5435,.16412896E-3,.883E-5,0
IONOSFERA-M 3,2025-155A,2026-07-04T06:43:01.645824,14.21489431,.00018939,98.6034,146.7553,128.7285,231.4062,0,U,64876,999,4883,.52156738E-4,.71E-6,0
IONOSFERA-M 4,2025-155B,2026-07-04T07:33:09.457056,14.21491796,.00015983,98.6039,146.7064,110.0508,250.0842,0,U,64877,999,4883,.50089417E-4,.67E-6,0
MICROCARB,2025-156A,2026-07-03T15:52:59.109600,14.72874273,.00168814,98.0107,261.5286,207.2389,152.7935,0,U,64899,999,5039,.10798334E-3,.642E-5,0
CO3D 3,2025-156B,2026-07-04T04:04:40.846944,15.20207644,.00018533,97.4328,263.6189,107.9167,252.2271,0,U,64900,999,5211,.2644504E-3,.5662E-4,0
CO3D 4,2025-156C,2026-07-03T15:26:36.841344,15.20201083,.00008933,97.4331,263.1003,172.3051,187.8198,0,U,64901,999,5203,.12565934E-3,.2654E-4,0
CO3D 2,2025-156D,2026-07-04T04:51:39.918240,15.20198540,.00013952,97.4332,263.5497,92.8952,267.2443,0,U,64902,999,5211,.23809274E-3,.509E-4,0
CO3D 1,2025-156E,2026-07-04T04:51:53.295552,15.20198264,.00012609,97.4323,263.5507,103.1286,257.0090,0,U,64903,999,5211,.2346212E-3,.5014E-4,0
PRSC-S1,2025-164A,2026-07-04T07:14:19.182624,15.06576002,.0005127,41.1288,191.4139,117.9134,242.2199,0,U,65055,999,5101,.25774425E-3,.3707E-4,0
SENTINEL-6B,2025-264A,2026-07-04T04:25:37.496928,12.80930015,.00079202,66.0413,99.8762,268.9420,91.0688,0,U,66514,999,2934,.10784656E-3,-.36E-6,0
CAS500-3,2025-274F,2026-07-03T18:05:38.045184,14.88362751,.00068411,97.7441,112.4281,67.8707,292.3236,0,U,66655,999,3261,.17571276E-3,.1574E-4,0
CSG-3,2026-001A,2026-07-04T01:50:22.278336,14.82150390,.0001392,97.8889,8.4338,84.6890,275.4481,0,U,67304,999,2696,.39421991E-3,.3087E-4,0
PRSC-E03,2026-092A,2026-07-04T03:42:08.862336,15.06764697,.00036029,38.0020,349.6238,177.3627,182.7154,0,U,68835,999,1051,.26773209E-3,.3953E-4,0
CAS500-2,2026-100AK,2026-07-03T06:34:07.344768,15.20782809,.00088787,97.3883,81.8293,340.4255,19.6638,0,U,69013,999,925,.33441443E-3,.7309E-4,0
